     3.04           N: GNSS NAV DATA    M: Mixed            RINEX VERSION / TYPE
CHC                 CHC                 20221020 113150 UTC PGM / RUN BY / DATE 
    18                                                      LEAP SECONDS        
                                                            END OF HEADER       
G21 2022 10 20 10  0  0  1.57694797963D-04 -6.82121026330D-13  0.00000000000D+00
      1.04000000000D+02  6.99687500000D+01  4.49304429619D-09 -1.57942523059D+00
      3.75322997570D-06  2.44097379036D-02  8.26269388199D-06  5.15369413185D+03
      3.81600000000D+05 -5.53205609322D-07 -1.07622418266D-01  8.38190317154D-08
      9.61277142766D-01  2.31656250000D+02 -8.80784219901D-01 -8.23248577322D-09
      3.78944355982D-10  0.00000000000D+00  2.23200000000D+03  0.00000000000D+00
      9.65000000000D+00  0.00000000000D+00 -1.02445483208D-08  1.04000000000D+02
      3.81600000000D+05  0.00000000000D+00  0.00000000000D+00  0.00000000000D+00
G22 2022 10 20 12  0  0  3.49133275449D-04  7.04858393874D-12  0.00000000000D+00
      3.90000000000D+01 -5.88125000000D+01  4.53090301601D-09 -7.49607060669D-01
     -3.05473804474D-06  1.34739475325D-02  9.41939651966D-06  5.15375324440D+03
      3.88800000000D+05 -1.45286321640D-07  2.15234641455D+00  1.71363353729D-07
      9.61781235078D-01  2.02031250000D+02 -1.84459146339D+00 -8.21534220198D-09
     -2.07865801302D-10  0.00000000000D+00  2.23200000000D+03  0.00000000000D+00
      9.65000000000D+00  0.00000000000D+00 -8.38190317154D-09  3.90000000000D+01
      3.88800000000D+05  0.00000000000D+00  0.00000000000D+00  0.00000000000D+00
G23 2022 10 20  8 44 32 -1.07707455754D-06 -1.13686837722D-13  0.00000000000D+00
      9.40000000000D+01 -2.82187500000D+01  4.61912097636D-09  1.01992240962D+00
     -1.48825347424D-06  2.77421437204D-03  3.40119004250D-06  5.15362922287D+03
      3.77072000000D+05  2.60770320892D-08  9.93383757575D-01 -5.58793544769D-08
      9.70481014327D-01  3.16781250000D+02  3.03858648795D+00 -8.30106005819D-09
     -1.18933525487D-10  0.00000000000D+00  2.23200000000D+03  0.00000000000D+00
      9.65000000000D+00  0.00000000000D+00 -8.38190317154D-09  9.40000000000D+01
      3.77072000000D+05  0.00000000000D+00  0.00000000000D+00  0.00000000000D+00
G25 2022 10 20  8  0  0  3.84234357625D-04  3.86535248253D-12  0.00000000000D+00
      6.70000000000D+01  1.50625000000D+01  4.99627954367D-09 -9.88368491115D-02
      7.99074769020D-07  1.06495681684D-02  5.29363751411D-06  5.15359736061D+03
      3.74400000000D+05 -3.91155481339D-08 -2.12856315701D+00  1.41561031342D-07
      9.55097993311D-01  2.79343750000D+02  1.00397186417D+00 -8.50035407387D-09
     -6.60741808263D-11  0.00000000000D+00  2.23200000000D+03  0.00000000000D+00
      9.65000000000D+00  0.00000000000D+00  5.58793544769D-09  6.70000000000D+01
      3.74400000000D+05  0.00000000000D+00  0.00000000000D+00  0.00000000000D+00
G26 2022 10 20 12  0  0  2.33120750636D-04  1.36424205266D-12  0.00000000000D+00
      2.20000000000D+01  2.05000000000D+01  5.32343602819D-09  1.24789781529D+00
      1.22748315334D-06  7.29308184236D-03  4.77954745293D-06  5.15357398796D+03
      3.88800000000D+05 -3.35276126862D-08 -2.18029552297D+00  6.89178705215D-08
      9.35939577183D-01  2.74406250000D+02  3.83325513103D-01 -8.58928634968D-09
     -1.48577617426D-10  0.00000000000D+00  2.23200000000D+03  0.00000000000D+00
      9.65000000000D+00  0.00000000000D+00  6.98491930962D-09  2.20000000000D+01
      3.88800000000D+05  0.00000000000D+00  0.00000000000D+00  0.00000000000D+00
G31 2022 10 20 11 59 44 -1.97423156351D-04 -1.25055521494D-12  0.00000000000D+00
      1.00000000000D+01  3.48125000000D+01  4.57269047091D-09  2.33917792365D+00
      1.68196856976D-06  1.06383417733D-02  9.54233109951D-06  5.15360490417D+03
      3.88784000000D+05 -2.06753611565D-07  3.13949598038D+00 -7.82310962677D-08
      9.55183319471D-01  1.96968750000D+02  4.46534505052D-01 -7.94354516626D-09
      2.24295057075D-10  0.00000000000D+00  2.23200000000D+03  0.00000000000D+00
      9.65000000000D+00  0.00000000000D+00 -1.35041773319D-08  1.00000000000D+01
      3.88784000000D+05  0.00000000000D+00  0.00000000000D+00  0.00000000000D+00
G32 2022 10 20 12  0  0 -2.69290991127D-04 -1.20508047985D-11  0.00000000000D+00
      2.30000000000D+01 -7.48125000000D+01  4.62483550011D-09  1.93523436205D-01
     -3.86871397495D-06  6.13996607717D-03  8.78982245922D-06  5.15366271591D+03
      3.88800000000D+05 -3.72529029846D-09  2.06120028817D+00  7.63684511185D-08
      9.58584061262D-01  2.10656250000D+02 -2.29742557165D+00 -8.15498254490D-09
     -2.45367363393D-10  0.00000000000D+00  2.23200000000D+03  0.00000000000D+00
      9.65000000000D+00  0.00000000000D+00  4.65661287308D-10  2.30000000000D+01
      3.88800000000D+05  0.00000000000D+00  0.00000000000D+00  0.00000000000D+00
C01 2022 10 20 10  0  0  7.90290650912D-04  4.44986270054D-11  0.00000000000D+00
      0.00000000000D+00  2.85343750000D+02 -1.33862718777D-09  2.07203902481D+00
      9.53814014792D-06  6.55991374515D-04  1.17863528430D-05  6.49333926964D+03
      3.81600000000D+05  4.28408384323D-08 -2.32110005685D-01  2.79396772385D-09
      9.23821809801D-02 -3.59921875000D+02 -2.90733965725D+00  2.29188118034D-09
     -1.96436753808D-11  0.00000000000D+00  8.76000000000D+02  0.00000000000D+00
      9.65000000000D+00  0.00000000000D+00 -4.70000000000D-09 -1.00000000000D-08
      8.20490400000D+08  0.00000000000D+00  0.00000000000D+00  0.00000000000D+00
C02 2022 10 20 10  0  0  5.95718855038D-04 -6.66817712158D-11  0.00000000000D+00
      1.00000000000D+00  3.76828125000D+02 -1.25290933156D-09 -1.94191682408D+00
      1.25337392092D-05  2.38719361369D-03  8.71438533068D-06  6.49352679443D+03
      3.81600000000D+05  7.07805156708D-08 -2.16959955836D-01 -6.14672899246D-08
      9.21401309434D-02 -2.61671875000D+02  3.43759430732D-02  2.38831376857D-09
     -2.89297764699D-11  0.00000000000D+00  8.76000000000D+02  0.00000000000D+00
      9.65000000000D+00  0.00000000000D+00  1.40000000000D-09 -1.42000000000D-08
      8.20490400000D+08  0.00000000000D+00  0.00000000000D+00  0.00000000000D+00
C03 2022 10 20 10  0  0 -2.56553175859D-04  3.64090979588D-11  0.00000000000D+00
      0.00000000000D+00  3.73703125000D+02 -7.40745140723D-10 -2.31848517271D+00
      1.24410726130D-05  7.87827884778D-04  1.03064812720D-05  6.49327351761D+03
      3.81600000000D+05  1.05705112219D-07 -1.77823528115D-01 -5.63450157642D-08
      1.00603226140D-01 -3.13203125000D+02  8.34994838669D-01  1.74328690061D-09
     -8.92894335490D-12  0.00000000000D+00  8.76000000000D+02  0.00000000000D+00
      9.65000000000D+00  0.00000000000D+00  2.30000000000D-09 -8.10000000000D-09
      8.20490400000D+08  0.00000000000D+00  0.00000000000D+00  0.00000000000D+00
C06 2022 10 20 10  0  0  8.89829476364D-04 -1.07185371689D-11  0.00000000000D+00
      1.00000000000D+00 -1.59375000000D+01  8.95394439630D-10 -1.23025077494D+00
     -6.20726495981D-07  3.01436160225D-03  2.39503569901D-05  6.49364443588D+03
      3.81600000000D+05 -1.19209289551D-07  2.62884889886D+00 -1.96043401957D-07
      9.46496337829D-01 -4.85578125000D+02 -3.11721414638D+00 -1.65721188667D-09
      1.46077513286D-10  0.00000000000D+00  8.76000000000D+02  0.00000000000D+00
      9.65000000000D+00  0.00000000000D+00  8.60000000000D-09 -1.80000000000D-09
      8.20490400000D+08  0.00000000000D+00  0.00000000000D+00  0.00000000000D+00
C07 2022 10 20 10  0  0  3.30535462126D-04 -5.32427435473D-11  0.00000000000D+00
      1.00000000000D+00 -8.88906250000D+01  1.77935983176D-09  2.70629405720D+00
     -2.76789069176D-06  2.24876566790D-03  3.26568260789D-06  6.49353450394D+03
      3.81600000000D+05 -1.12224370241D-07 -1.68134765481D+00  1.72294676304D-07
      8.71942196738D-01  1.10140625000D+02 -2.73069883988D+00 -2.53653422826D-09
     -6.03953728526D-10  0.00000000000D+00  8.76000000000D+02  0.00000000000D+00
      9.65000000000D+00  0.00000000000D+00  1.50000000000D-08  1.00000000000D-09
      8.20490400000D+08  0.00000000000D+00  0.00000000000D+00  0.00000000000D+00
C09 2022 10 20 10  0  0 -8.29624128528D-04  1.06741282480D-11  0.00000000000D+00
      1.00000000000D+00  3.45156250000D+01  8.65036032223D-10 -2.31468017106D+00
      1.06403604150D-06  9.71317721996D-03  2.38805077970D-05  6.49378722572D+03
      3.81600000000D+05 -2.75671482086D-07  2.67255400365D+00 -1.27125531435D-07
      9.51439185455D-01 -4.88828125000D+02 -2.33032646905D+00 -1.58113728929D-09
      2.62510934634D-10  0.00000000000D+00  8.76000000000D+02  0.00000000000D+00
      9.65000000000D+00  0.00000000000D+00  6.90000000000D-09  3.70000000000D-09
      8.20490400000D+08  0.00000000000D+00  0.00000000000D+00  0.00000000000D+00
C13 2022 10 20  9  0  0  1.11691886559D-04  9.87299131339D-12  0.00000000000D+00
      1.00000000000D+00  1.08000000000D+02  1.20862177252D-09 -1.56238176244D-01
      3.51481139660D-06  4.56719915383D-03 -6.19329512119D-07  6.49370345497D+03
      3.78000000000D+05  2.98023223877D-08  4.71887270353D-01 -1.54599547386D-07
      1.01743901841D+00  2.71703125000D+02 -2.53646243885D+00 -2.26402287707D-09
      3.68586781690D-10  0.00000000000D+00  8.76000000000D+02  0.00000000000D+00
      9.65000000000D+00  0.00000000000D+00 -9.40000000000D-09  2.60000000000D-09
      8.20486800000D+08  0.00000000000D+00  0.00000000000D+00  0.00000000000D+00
